CCSDS_OMM_VERS = 2.0
CREATION_DATE  = 
ORIGINATOR     = 

OBJECT_NAME    = STARLINK-36466
OBJECT_ID      = 2026-003AA
CENTER_NAME    = EARTH
REF_FRAME      = TEME
TIME_SYSTEM    = UTC
MEAN_ELEMENT_THEORY = SGP/SGP4

EPOCH          = 2026-01-25T20:00:03.000384
MEAN_MOTION    = 15.75051016
ECCENTRICITY   = .0001524
INCLINATION    = 42.9988
RA_OF_ASC_NODE = 112.9032
ARG_OF_PERICENTER = 279.6122
MEAN_ANOMALY   = 162.3167

EPHEMERIS_TYPE = 0
CLASSIFICATION_TYPE = U
NORAD_CAT_ID   = 67358
ELEMENT_SET_NO = 999
REV_AT_EPOCH   = 378
BSTAR          = .29687E-3
MEAN_MOTION_DOT = .45394E-3
MEAN_MOTION_DDOT = 0

CCSDS_OMM_VERS = 2.0
CREATION_DATE  = 
ORIGINATOR     = 

OBJECT_NAME    = STARLINK-36499
OBJECT_ID      = 2026-003AB
CENTER_NAME    = EARTH
REF_FRAME      = TEME
TIME_SYSTEM    = UTC
MEAN_ELEMENT_THEORY = SGP/SGP4

EPOCH          = 2026-01-25T20:00:03.000384
MEAN_MOTION    = 15.75045908
ECCENTRICITY   = .0001569
INCLINATION    = 42.9989
RA_OF_ASC_NODE = 112.8977
ARG_OF_PERICENTER = 278.3974
MEAN_ANOMALY   = 165.4570

EPHEMERIS_TYPE = 0
CLASSIFICATION_TYPE = U
NORAD_CAT_ID   = 67359
ELEMENT_SET_NO = 999
REV_AT_EPOCH   = 378
BSTAR          = .19394E-3
MEAN_MOTION_DOT = .29426E-3
MEAN_MOTION_DDOT = 0

CCSDS_OMM_VERS = 2.0
CREATION_DATE  = 
ORIGINATOR     = 

OBJECT_NAME    = STARLINK-36469
OBJECT_ID      = 2026-003AC
CENTER_NAME    = EARTH
REF_FRAME      = TEME
TIME_SYSTEM    = UTC
MEAN_ELEMENT_THEORY = SGP/SGP4

EPOCH          = 2026-01-25T20:00:03.000384
MEAN_MOTION    = 15.75207204
ECCENTRICITY   = .0001476
INCLINATION    = 42.9988
RA_OF_ASC_NODE = 112.8929
ARG_OF_PERICENTER = 275.7188
MEAN_ANOMALY   = 170.0791

EPHEMERIS_TYPE = 0
CLASSIFICATION_TYPE = U
NORAD_CAT_ID   = 67360
ELEMENT_SET_NO = 999
REV_AT_EPOCH   = 378
BSTAR          = -.14098E-2
MEAN_MOTION_DOT = -.213225E-2
MEAN_MOTION_DDOT = 0

CCSDS_OMM_VERS = 2.0
CREATION_DATE  = 
ORIGINATOR     = 

OBJECT_NAME    = STARLINK-35306
OBJECT_ID      = 2026-003AD
CENTER_NAME    = EARTH
REF_FRAME      = TEME
TIME_SYSTEM    = UTC
MEAN_ELEMENT_THEORY = SGP/SGP4

EPOCH          = 2026-01-25T20:00:03.000384
MEAN_MOTION    = 15.75078506
ECCENTRICITY   = .000152
INCLINATION    = 42.9989
RA_OF_ASC_NODE = 112.8871
ARG_OF_PERICENTER = 282.0154
MEAN_ANOMALY   = 165.6602

EPHEMERIS_TYPE = 0
CLASSIFICATION_TYPE = U
NORAD_CAT_ID   = 67361
ELEMENT_SET_NO = 999
REV_AT_EPOCH   = 372
BSTAR          = -.20064E-3
MEAN_MOTION_DOT = -.31236E-3
MEAN_MOTION_DDOT = 0

CCSDS_OMM_VERS = 2.0
CREATION_DATE  = 
ORIGINATOR     = 

OBJECT_NAME    = STARLINK-36428
OBJECT_ID      = 2026-003AE
CENTER_NAME    = EARTH
REF_FRAME      = TEME
TIME_SYSTEM    = UTC
MEAN_ELEMENT_THEORY = SGP/SGP4

EPOCH          = 2026-01-25T20:00:03.000384
MEAN_MOTION    = 15.75058438
ECCENTRICITY   = .0001607
INCLINATION    = 42.9990
RA_OF_ASC_NODE = 112.8820
ARG_OF_PERICENTER = 277.9074
MEAN_ANOMALY   = 171.6906

EPHEMERIS_TYPE = 0
CLASSIFICATION_TYPE = U
NORAD_CAT_ID   = 67362
ELEMENT_SET_NO = 999
REV_AT_EPOCH   = 378
BSTAR          = .36958E-4
MEAN_MOTION_DOT = .5208E-4
MEAN_MOTION_DDOT = 0

CCSDS_OMM_VERS = 2.0
CREATION_DATE  = 
ORIGINATOR     = 

OBJECT_NAME    = TWILIGHT A
OBJECT_ID      = 2026-004A
CENTER_NAME    = EARTH
REF_FRAME      = TEME
TIME_SYSTEM    = UTC
MEAN_ELEMENT_THEORY = SGP/SGP4

EPOCH          = 2026-01-25T19:30:41.370048
MEAN_MOTION    = 14.86921933
ECCENTRICITY   = .0007416
INCLINATION    = 97.7997
RA_OF_ASC_NODE = 26.7240
ARG_OF_PERICENTER = 244.5551
MEAN_ANOMALY   = 115.4897

EPHEMERIS_TYPE = 0
CLASSIFICATION_TYPE = U
NORAD_CAT_ID   = 67363
ELEMENT_SET_NO = 999
REV_AT_EPOCH   = 211
BSTAR          = .57421E-3
MEAN_MOTION_DOT = .5082E-4
MEAN_MOTION_DDOT = 0

CCSDS_OMM_VERS = 2.0
CREATION_DATE  = 
ORIGINATOR     = 

OBJECT_NAME    = TWILIGHT B
OBJECT_ID      = 2026-004B
CENTER_NAME    = EARTH
REF_FRAME      = TEME
TIME_SYSTEM    = UTC
MEAN_ELEMENT_THEORY = SGP/SGP4

EPOCH          = 2026-01-25T19:29:35.760480
MEAN_MOTION    = 14.87039934
ECCENTRICITY   = .0007272
INCLINATION    = 97.8000
RA_OF_ASC_NODE = 26.7248
ARG_OF_PERICENTER = 239.4493
MEAN_ANOMALY   = 120.6006

EPHEMERIS_TYPE = 0
CLASSIFICATION_TYPE = U
NORAD_CAT_ID   = 67364
ELEMENT_SET_NO = 999
REV_AT_EPOCH   = 212
BSTAR          = .68848E-3
MEAN_MOTION_DOT = .6123E-4
MEAN_MOTION_DDOT = 0

CCSDS_OMM_VERS = 2.0
CREATION_DATE  = 
ORIGINATOR     = 

OBJECT_NAME    = TWILIGHT C
OBJECT_ID      = 2026-004C
CENTER_NAME    = EARTH
REF_FRAME      = TEME
TIME_SYSTEM    = UTC
MEAN_ELEMENT_THEORY = SGP/SGP4

EPOCH          = 2026-01-25T19:29:16.760256
MEAN_MOTION    = 14.87056477
ECCENTRICITY   = .0006916
INCLINATION    = 97.7976
RA_OF_ASC_NODE = 26.7244
ARG_OF_PERICENTER = 245.6003
MEAN_ANOMALY   = 114.4492

EPHEMERIS_TYPE = 0
CLASSIFICATION_TYPE = U
NORAD_CAT_ID   = 67365
ELEMENT_SET_NO = 999
REV_AT_EPOCH   = 212
BSTAR          = .70936E-3
MEAN_MOTION_DOT = .6313E-4
MEAN_MOTION_DDOT = 0

CCSDS_OMM_VERS = 2.0
CREATION_DATE  = 
ORIGINATOR     = 

OBJECT_NAME    = TWILIGHT D
OBJECT_ID      = 2026-004D
CENTER_NAME    = EARTH
REF_FRAME      = TEME
TIME_SYSTEM    = UTC
MEAN_ELEMENT_THEORY = SGP/SGP4

EPOCH          = 2026-01-25T19:28:48.534240
MEAN_MOTION    = 14.87071179
ECCENTRICITY   = .0007386
INCLINATION    = 97.8032
RA_OF_ASC_NODE = 26.7267
ARG_OF_PERICENTER = 232.2067
MEAN_ANOMALY   = 127.8481

EPHEMERIS_TYPE = 0
CLASSIFICATION_TYPE = U
NORAD_CAT_ID   = 67366
ELEMENT_SET_NO = 999
REV_AT_EPOCH   = 212
BSTAR          = .62109E-3
MEAN_MOTION_DOT = .5522E-4
MEAN_MOTION_DDOT = 0

CCSDS_OMM_VERS = 2.0
CREATION_DATE  = 
ORIGINATOR     = 

OBJECT_NAME    = TWILIGHT E
OBJECT_ID      = 2026-004E
CENTER_NAME    = EARTH
REF_FRAME      = TEME
TIME_SYSTEM    = UTC
MEAN_ELEMENT_THEORY = SGP/SGP4

EPOCH          = 2026-01-25T19:27:47.744928
MEAN_MOTION    = 14.87176461
ECCENTRICITY   = .0006394
INCLINATION    = 97.7964
RA_OF_ASC_NODE = 26.7252
ARG_OF_PERICENTER = 248.0436
MEAN_ANOMALY   = 112.0100

EPHEMERIS_TYPE = 0
CLASSIFICATION_TYPE = U
NORAD_CAT_ID   = 67367
ELEMENT_SET_NO = 999
REV_AT_EPOCH   = 212
BSTAR          = .847E-3
MEAN_MOTION_DOT = .7572E-4
MEAN_MOTION_DDOT = 0

CCSDS_OMM_VERS = 2.0
CREATION_DATE  = 
ORIGINATOR     = 

OBJECT_NAME    = TWILIGHT F
OBJECT_ID      = 2026-004F
CENTER_NAME    = EARTH
REF_FRAME      = TEME
TIME_SYSTEM    = UTC
MEAN_ELEMENT_THEORY = SGP/SGP4

EPOCH          = 2026-01-25T19:27:13.293792
MEAN_MOTION    = 14.87215475
ECCENTRICITY   = .0006779
INCLINATION    = 97.8024
RA_OF_ASC_NODE = 26.7285
ARG_OF_PERICENTER = 234.2577
MEAN_ANOMALY   = 125.8009

EPHEMERIS_TYPE = 0
CLASSIFICATION_TYPE = U
NORAD_CAT_ID   = 67368
ELEMENT_SET_NO = 999
REV_AT_EPOCH   = 212
BSTAR          = .65559E-3
MEAN_MOTION_DOT = .5853E-4
MEAN_MOTION_DDOT = 0

CCSDS_OMM_VERS = 2.0
CREATION_DATE  = 
ORIGINATOR     = 

OBJECT_NAME    = TWILIGHT G
OBJECT_ID      = 2026-004G
CENTER_NAME    = EARTH
REF_FRAME      = TEME
TIME_SYSTEM    = UTC
MEAN_ELEMENT_THEORY = SGP/SGP4

EPOCH          = 2026-01-25T19:26:15.842976
MEAN_MOTION    = 14.87236692
ECCENTRICITY   = .0005846
INCLINATION    = 97.7954
RA_OF_ASC_NODE = 26.7267
ARG_OF_PERICENTER = 249.6491
MEAN_ANOMALY   = 110.4097

EPHEMERIS_TYPE = 0
CLASSIFICATION_TYPE = U
NORAD_CAT_ID   = 67369
ELEMENT_SET_NO = 999
REV_AT_EPOCH   = 212
BSTAR          = .45962E-3
MEAN_MOTION_DOT = .4088E-4
MEAN_MOTION_DDOT = 0

