STARLINK-36466          
1 67358U 26003AA  26025.83336806  .00045394  00000+0  29687-3 0  9991
2 67358  42.9988 112.9032 0001524 279.6122 162.3167 15.75051016  3785
STARLINK-36499          
1 67359U 26003AB  26025.83336806  .00029426  00000+0  19394-3 0  9994
2 67359  42.9989 112.8977 0001569 278.3974 165.4570 15.75045908  3789
STARLINK-36469          
1 67360U 26003AC  26025.83336806 -.00213225  00000+0 -14098-2 0  9995
2 67360  42.9988 112.8929 0001476 275.7188 170.0791 15.75207204  3788
STARLINK-35306          
1 67361U 26003AD  26025.83336806 -.00031236  00000+0 -20064-3 0  9997
2 67361  42.9989 112.8871 0001520 282.0154 165.6602 15.75078506  3726
STARLINK-36428          
1 67362U 26003AE  26025.83336806  .00005208  00000+0  36958-4 0  9996
2 67362  42.9990 112.8820 0001607 277.9074 171.6906 15.75058438  3785
TWILIGHT A              
1 67363U 26004A   26025.81297882  .00005082  00000+0  57421-3 0  9993
2 67363  97.7997  26.7240 0007416 244.5551 115.4897 14.86921933  2115
TWILIGHT B              
1 67364U 26004B   26025.81221945  .00006123  00000+0  68848-3 0  9993
2 67364  97.8000  26.7248 0007272 239.4493 120.6006 14.87039934  2121
TWILIGHT C              
1 67365U 26004C   26025.81199954  .00006313  00000+0  70936-3 0  9990
2 67365  97.7976  26.7244 0006916 245.6003 114.4492 14.87056477  2120
TWILIGHT D              
1 67366U 26004D   26025.81167285  .00005522  00000+0  62109-3 0  9997
2 67366  97.8032  26.7267 0007386 232.2067 127.8481 14.87071179  2126
TWILIGHT E              
1 67367U 26004E   26025.81096927  .00007572  00000+0  84700-3 0  9990
2 67367  97.7964  26.7252 0006394 248.0436 112.0100 14.87176461  2121
TWILIGHT F              
1 67368U 26004F   26025.81057053  .00005853  00000+0  65559-3 0  9999
2 67368  97.8024  26.7285 0006779 234.2577 125.8009 14.87215475  2125
TWILIGHT G              
1 67369U 26004G   26025.80990559  .00004088  00000+0  45962-3 0  9991
2 67369  97.7954  26.7267 0005846 249.6491 110.4097 14.87236692  2127
